CAS500-2 RIDESHARE OBJE*
1 69022U 26100AU  26129.78664297  .00003097  00000+0  14878-3 0  9996
2 69022  97.4059  28.2873 0006704 117.2652 242.9267 15.19554511   971
