{
  "norad_id": 69022,
  "name": "CAS500-2 RIDESHARE OBJECT AU",
  "history": [
    {
      "epoch": "2026-05-09T18:52:45.951744Z",
      "apogee_km": 511.80261119652096,
      "perigee_km": 502.56939305067317,
      "latitude_deg": 5.168874208321978e-05,
      "longitude_deg": -122.50338951697505,
      "height_km": 512.3798112649305,
      "semi_major_axis_km": 6885.323002123597,
      "eccentricity": 0.0006705,
      "inclination_deg": 97.4059,
      "raan_deg": 28.2873,
      "arg_perigee_deg": 117.2652,
      "mean_anomaly_deg": 242.9267,
      "mean_motion_rev_day": 15.19554511
    }
  ]
}